MALLIGYONG-1            
1 58400U 23179A   23346.46617109  .00003945  00000+0  17831-3 0  9994
2 58400  97.4268 230.9672 0014990 199.7096 160.3562 15.21434371  3173
